#cP2005  8 12  0  0  0.00000000      96 d+D   IGb00 FIT AIUB
## 1335 432000.00000000   900.00000000 53594 0.0000000000000
+   42   G01G02G03G04G05G06G07G08G09G10G11G13G14G15G16G18G19
+        G20G21G22G23G24G25G26G27G28G29G30G31R01R02R03R04R06
+        R07R08R17R18R21R22R23R24  0  0  0  0  0  0  0  0  0
+          0  0  0  0  0  0  0  0  0  0  0  0  0  0  0  0  0
+          0  0  0  0  0  0  0  0  0  0  0  0  0  0  0  0  0
++         5  4  4  4  5  4  4  4  4  6  4  4  4  4 10  6  4
++         6  4  5  4  4  4  4  4  4  4  4 10  7  7  6  7  7
++         7  7  6  6  5  7  6  6  0  0  0  0  0  0  0  0  0
++         0  0  0  0  0  0  0  0  0  0  0  0  0  0  0  0  0
++         0  0  0  0  0  0  0  0  0  0  0  0  0  0  0  0  0
%c M  cc GPS ccc cccc cccc cccc cccc ccccc ccccc ccccc ccccc
%c cc cc ccc ccc cccc cccc cccc cccc ccccc ccccc ccccc ccccc
%f  1.2500000  1.025000000  0.00000000000  0.000000000000000
%f  0.0000000  0.000000000  0.00000000000  0.000000000000000
%i    0    0    0    0      0      0      0      0         0
%i    0    0    0    0      0      0      0      0         0
/* CENTER FOR ORBIT DETERMINATION IN EUROPE (CODE)          
/* FINAL 3-DAY ORBIT FOR SOLUTION F3_05224                  
/* INCLUDING PRECISE CLOCK INFORMATION                      
/* CLK ANT Z-OFFSET(M): II&IIA 1.023; IIR 0.000             
*  2005  8 12 12 45  0.00000000
PG01 -17420.990881  -8814.070260 -17840.590472      2.831079
PG02  18795.796066  -5693.336499 -18096.797334    -27.148263
PG03 -17923.959681   -796.770790  19532.683374     25.341445
PG04  12698.147024   8679.498982 -21660.791323     26.426840
PG05  14444.848671 -13602.634599 -17751.207552    121.849089
PG06  -4607.741713 -23866.505740 -10392.811014    773.705444
PG07  17033.641293  19306.791761  -6373.086420    278.405171
PG08   6457.204745  15349.912298  20431.604482    -37.987432
PG09  14639.884294 -21749.892106   2439.292702     -2.563485
PG10  26407.850656  -1052.394228   3855.516141     68.372667
PG11 -13492.177866  22471.974274   3508.925681    254.907308
PG13   5819.027789  24441.839301  -8783.312103      8.923618
PG14 -16231.111551 -19314.630911  -8316.701336    -27.673181
PG15  -8067.069420 -13758.574331  20996.567348    473.329905
PG16 -26581.215902   -634.274003    813.780493      6.408346
PG18  -5821.111179 -15260.834870  21069.232060   -179.016519
PG19 -12253.528659   9687.959345  21592.752392    -25.172460
PG20 -11583.786666  13480.892749 -19816.066526    -52.931878
PG21   2221.386122 -21780.826888  14704.289692    120.749694
PG22 -17883.648955 -12479.990378  15317.973665     33.990326
PG23  -3408.046540  19629.626196 -17598.330273    180.905349
PG24    324.271675  20062.846094 -17046.241277     38.451425
PG25 -15060.018121  -3800.195913 -21165.470144    100.562193
PG26  12785.837882  -6788.775096  21908.920958     16.216639
PG27  -1214.611204  22684.038688  13983.876065     10.845562
PG28  16277.149029  12843.520456  17034.579673     43.280930
PG29  15441.667811  -1951.898381  21797.045789    246.063116
PG30   1266.953159 -15677.813209 -21658.436984    338.428371
PG31  13402.540306  22766.916424    310.297800     11.641461
PR01 -18692.776659   7775.964110 -15570.109546 999999.999999
PR02  -1476.843752  10871.806941 -23159.724484 999999.999999
PR03  17613.238503   7305.745717 -16859.086835 999999.999999
PR04  25449.154840    680.426377  -1769.983401 999999.999999
PR06   -608.401605 -10777.289905  22974.263073 999999.999999
PR07 -17667.198032  -7506.191468  16799.578047 999999.999999
PR08 -25506.237688    240.333938    736.761541 999999.999999
PR17  14927.304642  20087.986569  -4894.427895 999999.999999
PR18  12669.604209    555.778076 -22084.200080 999999.999999
PR21 -14982.462478 -19999.419002   5166.565831 999999.999999
PR22 -15034.979362  -7185.631588  19309.345601 999999.999999
PR23  -5906.928068  10666.202832  22401.053283 999999.999999
PR24   6094.104983  21430.151080  12416.182856 999999.999999
*  2005  8 12 13  0  0.00000000
PG01 -18224.014767 -10608.057115 -15988.239784      2.833404
PG02  17848.042009  -3806.439421 -19530.134232    -27.148530
PG03 -19044.180124  -2687.612388  18298.055034     25.343461
PG04  11376.077666  10763.272100 -21429.038377     26.402954
PG05  16369.130387 -13536.055521 -16015.226618    121.851620
PG06  -3655.380210 -22853.824737 -12745.927400    773.724454
PG07  17107.545539  19999.352557  -3654.782022    278.422756
PG08   5114.974573  17235.636844  19250.948923    -37.987854
PG09  14659.482995 -21168.847858   5260.236881     -2.565597
PG10  26686.349695   -859.844307   1002.142075     68.373554
PG11 -13664.997264  21782.563021   6175.196142    254.910389
PG13   5142.965847  23514.133098 -11372.774528      8.924991
PG14 -16463.842092 -20098.604827  -5566.674449    -27.672889
PG15  -6621.603957 -15674.129252  20118.700463    473.332942
PG16 -26499.057315   -880.214085  -2039.084943      6.408748
PG18  -3398.582650 -15173.306293  21631.120342   -179.019399
PG19 -13361.432846   7491.345089  21809.607956    -25.172848
PG20 -13757.990954  13361.895651 -18452.980031    -52.930407
PG21   3291.945052 -22962.726819  12495.216000    120.751833
PG22 -16040.844985 -12537.949086  17213.056774     33.991846
PG23  -4560.631464  17884.232623 -19150.785390    180.903399
PG24   -867.903990  21541.692497 -15127.877342     38.453477
PG25 -13999.914670  -6084.882120 -21348.951761    100.564001
PG26  14022.322547  -4537.257172  21788.226525     16.214402
PG27  -2059.797319  23827.578516  11666.248942     10.846075
PG28  14287.120386  12924.616736  18672.848150     43.280654
PG29  16616.269156    127.444265  21014.017247    246.084196
PG30   3679.473972 -15705.939985 -21346.100239    338.442876
PG31  12981.814087  22757.164696   3118.861976     11.642456
PR01 -20444.151473   7999.160957 -13053.110998 999999.999999
PR02  -4274.120671  11003.608352 -22747.209830 999999.999999
PR03  15398.582727   7383.952841 -18878.018815 999999.999999
PR04  25043.625688    534.940889  -4953.836680 999999.999999
PR06   2250.227146 -10893.682923  22812.732868 999999.999999
PR07 -15463.942396  -7531.600530  18832.938793 999999.999999
PR08 -25208.694798    379.583601   3934.732331 999999.999999
PR17  15266.232768  20352.920039  -1717.497971 999999.999999
PR18  14177.750447   2761.743462 -20991.869842 999999.999999
PR21 -15349.671625 -20285.088885   1992.041636 999999.999999
PR22 -16348.741327  -9031.440269  17368.594888 999999.999999
PR23  -7415.395757   8306.867913  22940.561353 999999.999999
PR24   5264.136327  19952.099238  14992.020662 999999.999999
*  2005  8 12 13 15  0.00000000
PG01 -19007.776912 -12158.605477 -13857.690114      2.838073
PG02  16934.584128  -1749.224337 -20633.741130    -27.148638
PG03 -20154.346551  -4397.077465  16748.059296     25.345547
PG04  10182.178504  12872.876184 -20827.800832     26.379240
PG05  18087.541097 -13534.993102 -14004.943016    121.854684
PG06  -2510.895633 -21677.282742 -14876.223950    773.743268
PG07  17034.629594  20433.676363   -873.606089    278.440527
PG08   3947.998563  19055.995975  17730.708998    -37.989084
PG09  14576.793105 -20298.235065   7987.691736     -2.568113
PG10  26652.872923   -672.534940  -1868.184183     68.374751
PG11 -13766.312948  20824.600769   8733.792969    254.913868
PG13   4265.981618  22387.264624 -13767.857792      8.926539
PG14 -16568.560554 -20600.929258  -2720.943128    -27.672373
PG15  -5337.644898 -17559.933848  18886.298817    473.337027
PG16 -26109.499848  -1145.824399  -4856.970415      6.409399
PG18   -929.558460 -15213.479289  21824.129900   -179.021883
PG19 -14583.938538   5352.382816  21655.032186    -25.173137
PG20 -15764.628717  13346.356625 -16774.292996    -52.928503
PG21   4174.894792 -23966.544040  10065.912249    120.754950
PG22 -14007.643848 -12691.005071  18815.265501     33.993249
PG23  -5888.421150  16071.939359 -20375.066001    180.901342
PG24  -1863.570140  22876.358931 -12942.519450     38.455289
PG25 -13053.647104  -8418.965040 -21151.737234    100.565597
PG26  15359.345569  -2393.889926  21281.632199     16.212364
PG27  -2741.687162  24765.688930   9149.015431     10.847848
PG28  12137.738617  13117.325456  19999.357213     43.280138
PG29  17846.212730   2047.164202  19878.600088    246.105610
PG30   6034.462470 -15850.270955 -20674.440538    338.457489
PG31  12372.072209  22512.997425   5872.634999     11.643368
PR01 -21852.298954   8309.437229 -10283.526231 999999.999999
PR02  -6977.499807  11333.283574 -21899.088333 999999.999999
PR03  12971.800557   7654.507171 -20528.062712 999999.999999
PR04  24245.726914    460.486582  -8041.765516 999999.999999
PR06   5045.445701 -11213.500680  22201.481917 999999.999999
PR07 -13042.218082  -7746.870382  20500.415554 999999.999999
PR08 -24516.080722    448.012885   7056.337764 999999.999999
PR17  15386.142409  20278.965717   1492.827506 999999.999999
PR18  15744.256843   4723.658323 -19490.566203 999999.999999
PR21 -15499.747110 -20229.798914  -1221.144056 999999.999999
PR22 -17637.171403 -10569.375920  15090.382034 999999.999999
PR23  -9115.981074   6032.509218  23034.160986 999999.999999
PR24   4148.657054  18299.598848  17276.581073 999999.999999
EOF
